{
  "type": "FeatureCollection",
  "features": [
    {
      "type": "Feature",
      "properties": {
        "norad_id": 37330,
        "name": "COSMOS 2251 DEB",
        "group": "cosmos-2251-debris",
        "lat": -16.991862192622865,
        "lon": -84.55952945191638,
        "alt_km": 731.7773144626317,
        "timestamp": "2025-12-20T09:36:02.046798+00:00",
        "meta_object_name": "COSMOS 2251 DEB",
        "meta_object_id": "1993-036BKW",
        "meta_epoch": "2025-12-19T04:04:18.721632",
        "meta_mean_motion": 14.59556855,
        "meta_eccentricity": 0.00568213,
        "meta_inclination": 74.0177,
        "meta_ra_of_asc_node": 282.8126,
        "meta_arg_of_pericenter": 129.5084,
        "meta_mean_anomaly": 231.1126,
        "meta_ephemeris_type": 0,
        "meta_classification_type": "U",
        "meta_norad_cat_id": 37330,
        "meta_element_set_no": 999,
        "meta_rev_at_epoch": 86462,
        "meta_bstar": 0.00021895794,
        "meta_mean_motion_dot": 1.033e-05,
        "meta_mean_motion_ddot": 0,
        "tle_line1": "1 37330U 93036BKW 25353.16966113  .00001033  00000+0  21896-3 0  9993",
        "tle_line2": "2 37330  74.0177 282.8126 0056821 129.5084 231.1126 14.59556855864629"
      },
      "geometry": {
        "type": "Point",
        "coordinates": [
          -84.55952945191638,
          -16.991862192622865
        ]
      }
    },
    {
      "type": "Feature",
      "properties": {
        "norad_id": 37331,
        "name": "COSMOS 2251 DEB",
        "group": "cosmos-2251-debris",
        "lat": 28.27064009866813,
        "lon": -134.96921902543673,
        "alt_km": 769.258550585364,
        "timestamp": "2025-12-20T09:36:02.046809+00:00",
        "meta_object_name": "COSMOS 2251 DEB",
        "meta_object_id": "1993-036BKX",
        "meta_epoch": "2025-12-16T21:15:09.521568",
        "meta_mean_motion": 14.35033598,
        "meta_eccentricity": 0.00552693,
        "meta_inclination": 74.0751,
        "meta_ra_of_asc_node": 60.2873,
        "meta_arg_of_pericenter": 73.2754,
        "meta_mean_anomaly": 287.4454,
        "meta_ephemeris_type": 0,
        "meta_classification_type": "U",
        "meta_norad_cat_id": 37331,
        "meta_element_set_no": 999,
        "meta_rev_at_epoch": 84819,
        "meta_bstar": 0.00035206854,
        "meta_mean_motion_dot": 9.96e-06,
        "meta_mean_motion_ddot": 0,
        "tle_line1": "1 37331U 93036BKX 25350.88552687  .00000996  00000+0  35207-3 0  9995",
        "tle_line2": "2 37331  74.0751  60.2873 0055269  73.2754 287.4454 14.35033598848199"
      },
      "geometry": {
        "type": "Point",
        "coordinates": [
          -134.96921902543673,
          28.27064009866813
        ]
      }
    },
    {
      "type": "Feature",
      "properties": {
        "norad_id": 37336,
        "name": "COSMOS 2251 DEB",
        "group": "cosmos-2251-debris",
        "lat": 62.90964542255529,
        "lon": -8.754536070350888,
        "alt_km": 758.9975676441973,
        "timestamp": "2025-12-20T09:36:02.046819+00:00",
        "meta_object_name": "COSMOS 2251 DEB",
        "meta_object_id": "1993-036BLC",
        "meta_epoch": "2025-12-17T07:33:13.175712",
        "meta_mean_motion": 14.32760586,
        "meta_eccentricity": 0.00290162,
        "meta_inclination": 74.0414,
        "meta_ra_of_asc_node": 322.8603,
        "meta_arg_of_pericenter": 39.1846,
        "meta_mean_anomaly": 321.1399,
        "meta_ephemeris_type": 0,
        "meta_classification_type": "U",
        "meta_norad_cat_id": 37336,
        "meta_element_set_no": 999,
        "meta_rev_at_epoch": 65185,
        "meta_bstar": 6.9199726e-05,
        "meta_mean_motion_dot": 1.63e-06,
        "meta_mean_motion_ddot": 0,
        "tle_line1": "1 37336U 93036BLC 25351.31473583  .00000163  00000+0  69200-4 0  9993",
        "tle_line2": "2 37336  74.0414 322.8603 0029016  39.1846 321.1399 14.32760586651852"
      },
      "geometry": {
        "type": "Point",
        "coordinates": [
          -8.754536070350888,
          62.90964542255529
        ]
      }
    },
    {
      "type": "Feature",
      "properties": {
        "norad_id": 37340,
        "name": "COSMOS 2251 DEB",
        "group": "cosmos-2251-debris",
        "lat": 40.755890048497136,
        "lon": -82.64469319047444,
        "alt_km": 756.1834383303922,
        "timestamp": "2025-12-20T09:36:02.046828+00:00",
        "meta_object_name": "COSMOS 2251 DEB",
        "meta_object_id": "1993-036BLG",
        "meta_epoch": "2025-12-19T03:19:36.196032",
        "meta_mean_motion": 14.36930541,
        "meta_eccentricity": 0.00180628,
        "meta_inclination": 74.0254,
        "meta_ra_of_asc_node": 265.3825,
        "meta_arg_of_pericenter": 358.9051,
        "meta_mean_anomaly": 1.206,
        "meta_ephemeris_type": 0,
        "meta_classification_type": "U",
        "meta_norad_cat_id": 37340,
        "meta_element_set_no": 999,
        "meta_rev_at_epoch": 84159,
        "meta_bstar": 0.00014760605,
        "meta_mean_motion_dot": 4.11e-06,
        "meta_mean_motion_ddot": 0,
        "tle_line1": "1 37340U 93036BLG 25353.13861338  .00000411  00000+0  14761-3 0  9996",
        "tle_line2": "2 37340  74.0254 265.3825 0018062 358.9051   1.2060 14.36930541841592"
      },
      "geometry": {
        "type": "Point",
        "coordinates": [
          -82.64469319047444,
          40.755890048497136
        ]
      }
    },
    {
      "type": "Feature",
      "properties": {
        "norad_id": 37483,
        "name": "COSMOS 2251 DEB",
        "group": "cosmos-2251-debris",
        "lat": -20.936107484075915,
        "lon": 122.73064659661341,
        "alt_km": 685.2540368097307,
        "timestamp": "2025-12-20T09:36:02.046840+00:00",
        "meta_object_name": "COSMOS 2251 DEB",
        "meta_object_id": "1993-036BLL",
        "meta_epoch": "2025-12-19T15:24:15.613632",
        "meta_mean_motion": 14.43565885,
        "meta_eccentricity": 0.0093433,
        "meta_inclination": 73.9738,
        "meta_ra_of_asc_node": 130.458,
        "meta_arg_of_pericenter": 335.3971,
        "meta_mean_anomaly": 24.2741,
        "meta_ephemeris_type": 0,
        "meta_classification_type": "U",
        "meta_norad_cat_id": 37483,
        "meta_element_set_no": 999,
        "meta_rev_at_epoch": 65379,
        "meta_bstar": 0.00014162,
        "meta_mean_motion_dot": 4.76e-06,
        "meta_mean_motion_ddot": 0,
        "tle_line1": "1 37483U 93036BLL 25353.64184738  .00000476  00000+0  14162-3 0  9998",
        "tle_line2": "2 37483  73.9738 130.4580 0093433 335.3971  24.2741 14.43565885653797"
      },
      "geometry": {
        "type": "Point",
        "coordinates": [
          122.73064659661341,
          -20.936107484075915
        ]
      }
    },
    {
      "type": "Feature",
      "properties": {
        "norad_id": 37484,
        "name": "COSMOS 2251 DEB",
        "group": "cosmos-2251-debris",
        "lat": 1.508613200779764,
        "lon": 13.622897270314661,
        "alt_km": 736.5285268004618,
        "timestamp": "2025-12-20T09:36:02.046851+00:00",
        "meta_object_name": "COSMOS 2251 DEB",
        "meta_object_id": "1993-036BLM",
        "meta_epoch": "2025-12-18T07:38:27.570624",
        "meta_mean_motion": 14.41807924,
        "meta_eccentricity": 0.00394245,
        "meta_inclination": 73.8227,
        "meta_ra_of_asc_node": 197.9673,
        "meta_arg_of_pericenter": 231.9462,
        "meta_mean_anomaly": 306.1628,
        "meta_ephemeris_type": 0,
        "meta_classification_type": "U",
        "meta_norad_cat_id": 37484,
        "meta_element_set_no": 999,
        "meta_rev_at_epoch": 65459,
        "meta_bstar": 0.0005692289,
        "meta_mean_motion_dot": 1.85e-05,
        "meta_mean_motion_ddot": 0,
        "tle_line1": "1 37484U 93036BLM 25352.31837466  .00001850  00000+0  56923-3 0  9993",
        "tle_line2": "2 37484  73.8227 197.9673 0039424 231.9462 306.1628 14.41807924654593"
      },
      "geometry": {
        "type": "Point",
        "coordinates": [
          13.622897270314661,
          1.508613200779764
        ]
      }
    },
    {
      "type": "Feature",
      "properties": {
        "norad_id": 37486,
        "name": "COSMOS 2251 DEB",
        "group": "cosmos-2251-debris",
        "lat": 15.337100448987794,
        "lon": 105.35555443232897,
        "alt_km": 735.8653040986128,
        "timestamp": "2025-12-20T09:36:02.046861+00:00",
        "meta_object_name": "COSMOS 2251 DEB",
        "meta_object_id": "1993-036BLP",
        "meta_epoch": "2025-12-17T02:32:52.709568",
        "meta_mean_motion": 14.133616,
        "meta_eccentricity": 0.02300438,
        "meta_inclination": 73.6918,
        "meta_ra_of_asc_node": 106.7033,
        "meta_arg_of_pericenter": 334.068,
        "meta_mean_anomaly": 206.8915,
        "meta_ephemeris_type": 0,
        "meta_classification_type": "U",
        "meta_norad_cat_id": 37486,
        "meta_element_set_no": 999,
        "meta_rev_at_epoch": 63431,
        "meta_bstar": 0.0015394853,
        "meta_mean_motion_dot": 3.693e-05,
        "meta_mean_motion_ddot": 0,
        "tle_line1": "1 37486U 93036BLP 25351.10616562  .00003693  00000+0  15395-2 0  9997",
        "tle_line2": "2 37486  73.6918 106.7033 0230043 334.0680 206.8915 14.13361600634313"
      },
      "geometry": {
        "type": "Point",
        "coordinates": [
          105.35555443232897,
          15.337100448987794
        ]
      }
    }
  ]
}